[{"OBJECT_NAME":"STARLINK-31477","OBJECT_ID":"2024-056U","EPOCH":"2026-03-09T12:14:15.963072","MEAN_MOTION":15.27571549,"ECCENTRICITY":0.00013809,"INCLINATION":43.0032,"RA_OF_ASC_NODE":224.2127,"ARG_OF_PERICENTER":259.8227,"MEAN_ANOMALY":100.2469,"EPHEMERIS_TYPE":0,"CLASSIFICATION_TYPE":"U","NORAD_CAT_ID":59314,"ELEMENT_SET_NO":999,"REV_AT_EPOCH":11121,"BSTAR":-3.4475251e-5,"MEAN_MOTION_DOT":-1.21e-5,"MEAN_MOTION_DDOT":0},{"OBJECT_NAME":"OBJECT C","OBJECT_ID":"2024-092C","EPOCH":"2026-03-09T23:10:26.961312","MEAN_MOTION":15.27308901,"ECCENTRICITY":0.00097974,"INCLINATION":97.6475,"RA_OF_ASC_NODE":197.1606,"ARG_OF_PERICENTER":169.1353,"MEAN_ANOMALY":191.0098,"EPHEMERIS_TYPE":0,"CLASSIFICATION_TYPE":"U","NORAD_CAT_ID":59775,"ELEMENT_SET_NO":999,"REV_AT_EPOCH":10042,"BSTAR":0.00057925748,"MEAN_MOTION_DOT":0.00015454,"MEAN_MOTION_DDOT":0}]
